NORAD_CAT_ID,OBJECT_NAME,OBJECT_TYPE,EPOCH,MEAN_MOTION,ECCENTRICITY,INCLINATION,RA_OF_ASC_NODE,ARG_OF_PERICENTER,MEAN_ANOMALY,BSTAR,MEAN_MOTION_DOT,MEAN_MOTION_DDOT,TLE_LINE0,TLE_LINE1,TLE_LINE2,SEMIMAJOR_AXIS,PERIOD,APOGEE,PERIGEE,DECAYED
52701.0,STARLINK-4003,PAYLOAD,2024-01-23 06:51:35,15.0884719,0.0001484,53.2196,19.5358,102.4034,257.7125,0.00010487,1.382e-05,0.0,0 STARLINK-4003,1 52701U 22053AX  24023.28582912  .00001382  00000-0  10487-3 0  9992,2 52701  53.2196  19.5358 0001484 102.4034 257.7125 15.08847190 93672,6917.858,95.437,540.75,538.697,0.0
52701.0,STARLINK-4003,PAYLOAD,2024-01-24 03:31:37,15.08837494,0.0001595,53.2184,15.6701,96.5759,263.5415,5.503e-05,5.88e-06,0.0,0 STARLINK-4003,1 52701U 22053AX  24024.14695689  .00000588  00000-0  55030-4 0  9995,2 52701  53.2184  15.6701 0001595  96.5759 263.5415 15.08837494 93806,6917.888,95.438,540.856,538.65,0.0
52701.0,STARLINK-4003,PAYLOAD,2024-01-24 06:42:23,15.08839926,0.0001483,53.2186,15.074,83.7483,276.3678,7.4499e-05,8.98e-06,0.0,0 STARLINK-4003,1 52701U 22053AX  24024.27943696  .00000898  00000-0  74499-4 0  9997,2 52701  53.2186  15.0740 0001483  83.7483 276.3678 15.08839926 94258,6917.881,95.438,540.772,538.72,0.0
52701.0,STARLINK-4003,PAYLOAD,2024-01-25 06:33:10,15.08847013,0.0001959,53.2207,10.6116,64.2709,295.8486,7.8019e-05,9.54e-06,0.0,0 STARLINK-4003,1 52701U 22053AX  24025.27303559  .00000954  00000-0  78019-4 0  9991,2 52701  53.2207  10.6116 0001959  64.2709 295.8486 15.08847013 93970,6917.859,95.437,541.079,538.369,0.0
52701.0,STARLINK-4003,PAYLOAD,2024-01-26 03:13:11,15.08840479,0.0002312,53.2208,6.7437,62.6666,297.4561,7.4508e-05,8.98e-06,0.0,0 STARLINK-4003,1 52701U 22053AX  24026.13415954  .00000898  00000-0  74508-4 0  9996,2 52701  53.2208   6.7437 0002312  62.6666 297.4561 15.08840479 94108,6917.879,95.438,541.343,538.145,0.0
52701.0,STARLINK-4003,PAYLOAD,2024-01-26 06:23:57,15.08841784,0.0002133,53.2216,6.1465,64.6933,295.428,9.0235e-05,1.148e-05,0.0,0 STARLINK-4003,1 52701U 22053AX  24026.26663829  .00001148  00000-0  90235-4 0  9990,2 52701  53.2216   6.1465 0002133  64.6933 295.4280 15.08841784 94557,6917.875,95.437,541.216,538.264,0.0
52701.0,STARLINK-4003,PAYLOAD,2024-01-27 07:50:07,15.08843217,0.000227,53.2212,1.387,68.557,291.5664,7.6622e-06,-1.66e-06,0.0,0 STARLINK-4003,1 52701U 22053AX  24027.32648073 -.00000166  00000-0  76622-5 0  9997,2 52701  53.2212   1.3870 0002270  68.5570 291.5664 15.08843217 94288,6917.871,95.437,541.306,538.165,0.0
52701.0,STARLINK-4003,PAYLOAD,2024-01-28 07:40:54,15.08846949,0.0001706,53.2194,356.9276,103.9968,256.1214,1.4726e-05,-5.4e-07,0.0,0 STARLINK-4003,1 52701U 22053AX  24028.32007478 -.00000054  00000-0  14726-4 0  9998,2 52701  53.2194 356.9276 0001706 103.9968 256.1214 15.08846949 94861,6917.859,95.437,540.904,538.544,0.0
52701.0,STARLINK-4003,PAYLOAD,2024-01-29 02:45:32,15.08841123,0.0001862,53.2201,353.3587,111.829,248.29,4.2443e-05,3.87e-06,0.0,0 STARLINK-4003,1 52701U 22053AX  24029.11495814  .00000387  00000-0  42443-4 0  9996,2 52701  53.2201 353.3587 0001862 111.8290 248.2900 15.08841123 94554,6917.877,95.437,541.03,538.454,0.0
52701.0,STARLINK-4003,PAYLOAD,2024-01-29 07:31:41,15.08840727,0.0001979,53.2202,352.467,115.9158,244.2038,5.7652e-05,6.29e-06,0.0,0 STARLINK-4003,1 52701U 22053AX  24029.31367772  .00000629  00000-0  57652-4 0  9996,2 52701  53.2202 352.4670 0001979 115.9158 244.2038 15.08840727 95014,6917.878,95.438,541.112,538.374,0.0
52701.0,STARLINK-4003,PAYLOAD,2024-01-30 02:36:19,15.0884419,0.0002087,53.2197,348.8986,122.5753,237.5441,9.4026e-06,-1.39e-06,0.0,0 STARLINK-4003,1 52701U 22053AX  24030.10855656 -.00000139  00000-0  94026-5 0  9992,2 52701  53.2197 348.8986 0002087 122.5753 237.5441 15.08844190 95136,6917.868,95.437,541.176,538.289,0.0
52701.0,STARLINK-4003,PAYLOAD,2024-01-31 04:02:29,15.08846463,0.0001877,53.22,344.1479,118.3987,241.7195,1.1452e-05,-1.06e-06,0.0,0 STARLINK-4003,1 52701U 22053AX  24031.16839645 -.00000106  00000-0  11452-4 0  9994,2 52701  53.2200 344.1479 0001877 118.3987 241.7195 15.08846463 94862,6917.861,95.437,541.024,538.427,0.0
52701.0,STARLINK-4003,PAYLOAD,2024-01-31 19:56:21,15.08838739,0.000173,53.2199,341.1779,109.9621,250.1557,9.3473e-05,1.2e-05,0.0,0 STARLINK-4003,1 52701U 22053AX  24031.83079880  .00001200  00000-0  93473-4 0  9993,2 52701  53.2199 341.1779 0001730 109.9621 250.1557 15.08838739 95390,6917.884,95.438,540.946,538.552,0.0
52701.0,STARLINK-4003,PAYLOAD,2024-02-01 03:53:16,15.08839569,0.0001661,53.2199,339.6882,89.6189,270.4994,5.1238e-05,5.27e-06,0.0,0 STARLINK-4003,1 52701U 22053AX  24032.16200176  .00000527  00000-0  51238-4 0  9998,2 52701  53.2199 339.6882 0001661  89.6189 270.4994 15.08839569 95014,6917.882,95.438,540.896,538.598,0.0
52701.0,STARLINK-4003,PAYLOAD,2024-02-01 19:47:08,15.08844644,0.0001535,53.219,336.7143,98.9342,261.1824,-4.1506e-05,-9.49e-06,0.0,0 STARLINK-4003,1 52701U 22053AX  24032.82440269 -.00000949  00000-0 -41506-4 0  9997,2 52701  53.2190 336.7143 0001535  98.9342 261.1824 15.08844644 95544,6917.866,95.437,540.793,538.669,0.0
52701.0,STARLINK-4003,PAYLOAD,2024-02-02 02:08:41,15.08826051,0.0001756,53.2197,335.526,85.9082,274.2111,0.00024279,3.577e-05,0.0,0 STARLINK-4003,1 52701U 22053AX  24033.08936415  .00003577  00000-0  24279-3 0  9994,2 52701  53.2197 335.5260 0001756  85.9082 274.2111 15.08826051 95153,6917.923,95.438,541.003,538.573,0.0
52701.0,STARLINK-4003,PAYLOAD,2024-02-02 19:37:55,15.08838011,0.0001691,53.2185,332.2551,76.2523,283.8658,3.9933e-05,3.47e-06,0.0,0 STARLINK-4003,1 52701U 22053AX  24033.81800459  .00000347  00000-0  39933-4 0  9999,2 52701  53.2185 332.2551 0001691  76.2523 283.8658 15.08838011 95698,6917.886,95.438,540.921,538.582,0.0
52701.0,STARLINK-4003,PAYLOAD,2024-02-03 01:59:27,15.08840826,0.000174,53.2185,331.0661,75.8005,284.318,6.3385e-05,7.21e-06,0.0,0 STARLINK-4003,1 52701U 22053AX  24034.08296196  .00000721  00000-0  63385-4 0  9990,2 52701  53.2185 331.0661 0001740  75.8005 284.3180 15.08840826 95303,6917.878,95.438,540.947,538.539,0.0
52701.0,STARLINK-4003,PAYLOAD,2024-02-03 05:10:13,15.08847951,0.0001665,53.2186,330.4701,88.0376,272.0806,0.00010953,1.456e-05,0.0,0 STARLINK-4003,1 52701U 22053AX  24034.21543536  .00001456  00000-0  10953-3 0  9996,2 52701  53.2186 330.4701 0001665  88.0376 272.0806 15.08847951 95322,6917.856,95.437,540.873,538.569,0.0
52701.0,STARLINK-4003,PAYLOAD,2024-02-03 22:39:28,15.08846296,0.0001725,53.2177,327.1922,137.1697,222.943,-4.4932e-05,-1.003e-05,0.0,0 STARLINK-4003,1 52701U 22053AX  24034.94407632 -.00001003  00000-0 -44932-4 0  9997,2 52701  53.2177 327.1922 0001725 137.1697 222.9430 15.08846296 95866,6917.861,95.437,540.919,538.533,0.0
52701.0,STARLINK-4003,PAYLOAD,2024-02-04 01:50:14,15.08848732,0.0001528,53.2179,326.6058,91.6811,268.4356,0.00012114,1.641e-05,0.0,0 STARLINK-4003,1 52701U 22053AX  24035.07655296  .00001641  00000-0  12114-3 0  9995,2 52701  53.2179 326.6058 0001528  91.6811 268.4356 15.08848732 95886,6917.854,95.437,540.776,538.662,0.0
52701.0,STARLINK-4003,PAYLOAD,2024-02-04 22:30:15,15.08842622,0.000188,53.2178,322.7353,123.2742,236.843,-2.5636e-05,-6.96e-06,0.0,0 STARLINK-4003,1 52701U 22053AX  24035.93767908 -.00000696  00000-0 -25636-4 0  9999,2 52701  53.2178 322.7353 0001880 123.2742 236.8430 15.08842622 96016,6917.872,95.437,541.038,538.437,0.0
52701.0,STARLINK-4003,PAYLOAD,2024-02-05 01:41:01,15.08843604,0.0001497,53.2172,322.1394,108.9366,251.1788,3.0667e-06,-2.39e-06,0.0,0 STARLINK-4003,1 52701U 22053AX  24036.07015817 -.00000239  00000-0  30667-5 0  9993,2 52701  53.2172 322.1394 0001497 108.9366 251.1788 15.08843604 95606,6917.869,95.437,540.77,538.699,0.0
52701.0,STARLINK-4003,PAYLOAD,2024-02-05 22:21:02,15.0884122,0.0001482,53.2181,318.2754,101.8704,258.2454,-4.3018e-05,-9.73e-06,0.0,0 STARLINK-4003,1 52701U 22053AX  24036.93128262 -.00000973  00000-0 -43018-4 0  9996,2 52701  53.2181 318.2754 0001482 101.8704 258.2454 15.08841220 96166,6917.877,95.437,540.767,538.716,0.0
52701.0,STARLINK-4003,PAYLOAD,2024-02-06 01:31:48,15.08834248,0.0001546,53.2188,317.6822,112.2185,247.8971,0.00013421,1.848e-05,0.0,0 STARLINK-4003,1 52701U 22053AX  24037.06376062  .00001848  00000-0  13421-3 0  9998,2 52701  53.2188 317.6822 0001546 112.2185 247.8971 15.08834248 95756,6917.898,95.438,540.832,538.693,0.0
52701.0,STARLINK-4003,PAYLOAD,2024-02-06 22:11:49,15.08840878,0.0002228,53.2188,313.8191,132.286,227.8321,-1.3795e-05,-5.08e-06,0.0,0 STARLINK-4003,1 52701U 22053AX  24037.92488218 -.00000508  00000-0 -13795-4 0  9999,2 52701  53.2188 313.8191 0002228 132.2860 227.8321 15.08840878 96319,6917.878,95.437,541.284,538.201,0.0
52701.0,STARLINK-4003,PAYLOAD,2024-02-07 10:54:55,15.08835275,0.0001444,53.2183,311.4397,95.4406,264.6751,-2.5256e-05,-6.9e-06,0.0,0 STARLINK-4003,1 52701U 22053AX  24038.45480858 -.00000690  00000-0 -25256-4 0  9997,2 52701  53.2183 311.4397 0001444  95.4406 264.6751 15.08835275 95962,6917.895,95.438,540.759,538.761,0.0
52701.0,STARLINK-4003,PAYLOAD,2024-02-07 22:02:38,15.08809982,0.000196,53.2194,309.3645,122.6237,237.4945,0.00015057,2.107e-05,0.0,0 STARLINK-4003,1 52701U 22053AX  24038.91850132  .00002107  00000-0  15057-3 0  9994,2 52701  53.2194 309.3645 0001960 122.6237 237.4945 15.08809982 96469,6917.972,95.439,541.193,538.481,0.0
52701.0,STARLINK-4003,PAYLOAD,2024-02-08 01:13:24,15.0883103,0.0001772,53.2181,308.7683,119.9612,240.1556,-7.3485e-05,-1.457e-05,0.0,0 STARLINK-4003,1 52701U 22053AX  24039.05097746 -.00001457  00000-0 -73485-4 0  9993,2 52701  53.2181 308.7683 0001772 119.9612 240.1556 15.08831030 96050,6917.908,95.438,540.999,538.547,0.0
52701.0,STARLINK-4003,PAYLOAD,2024-02-08 21:53:24,15.08842181,0.0001797,53.2195,304.902,113.725,246.3931,7.1983e-05,8.58e-06,0.0,0 STARLINK-4003,1 52701U 22053AX  24039.91209036  .00000858  00000-0  71983-4 0  9998,2 52701  53.2195 304.9020 0001797 113.7250 246.3931 15.08842181 96611,6917.874,95.437,540.982,538.496,0.0
